OBJECT_NAME,OBJECT_ID,EPOCH,MEAN_MOTION,ECCENTRICITY,INCLINATION,RA_OF_ASC_NODE,ARG_OF_PERICENTER,MEAN_ANOMALY,EPHEMERIS_TYPE,CLASSIFICATION_TYPE,NORAD_CAT_ID,ELEMENT_SET_NO,REV_AT_EPOCH,BSTAR,MEAN_MOTION_DOT,MEAN_MOTION_DDOT
SL-12 R/B(2),1985-042D,2026-07-13T11:39:02.765952,14.22010720,.0037275,71.1066,181.9538,288.6952,206.4049,0,U,15772,999,13227,.11484E-5,-.45E-6,0
SL-14 R/B,1985-069B,2026-07-13T03:38:47.019840,14.86534369,.0019929,82.5264,266.9480,133.6634,226.6239,0,U,15945,999,19147,.23808E-4,.236E-5,0
SL-16 R/B,1985-097B,2026-07-13T11:19:46.007328,14.16612325,.0005558,71.0008,235.7407,55.0997,43.7789,0,U,16182,999,10504,.43581E-4,.39E-6,0
SL-14 R/B,1986-006B,2026-07-13T08:43:00.186240,14.86967487,.0075329,82.5282,141.4812,215.0062,144.6192,0,U,16496,999,16788,.22387E-4,.237E-5,0
COSMOS 1743,1986-034A,2026-07-13T08:56:45.759840,15.69473510,.0005352,82.5285,300.8401,182.2031,177.9208,0,U,16719,999,19989,.33696E-3,.3974E-3,0
SL-14 R/B,1986-046B,2026-07-13T10:04:28.446816,14.85689769,.0023375,82.4838,321.3879,168.7842,191.3901,0,U,16792,999,14507,.25694E-4,.248E-5,0
SL-14 R/B,1986-055B,2026-07-13T11:20:31.237728,14.85739602,.0017304,82.5201,8.4160,276.5256,113.2662,0,U,16882,999,13804,.22044E-4,.216E-5,0
AJISAI (EGS),1986-061A,2026-07-13T11:21:36.592416,12.44516654,.0011094,50.0100,66.5661,247.4949,169.4783,0,U,16908,999,48366,-.23264E-5,-.98E-6,0
SL-14 R/B,1987-024B,2026-07-13T11:23:42.332928,14.86230978,.0017663,82.5296,334.5407,199.5946,160.4594,0,U,17567,999,10681,.24439E-4,.24E-5,0
COSMOS 1833,1987-027A,2026-07-12T22:42:46.768896,14.13065950,.00240842,70.9212,62.7271,12.3136,347.8569,0,U,17589,999,2801,.8567228E-4,.112E-5,0
SL-16 R/B,1987-027B,2026-07-13T11:21:42.478848,14.17173192,.0007139,71.0031,11.4345,283.4589,76.5739,0,U,17590,999,3316,.16609E-4,-.14E-6,0
SL-14 R/B,1987-038B,2026-07-13T11:12:44.392608,14.85460782,.0020774,82.5012,178.3175,107.4891,252.8597,0,U,17912,999,9790,.21513E-4,.211E-5,0
COSMOS 1844,1987-041A,2026-07-13T06:30:31.315392,14.14580064,.0031444,70.8997,129.2878,198.0297,161.9712,0,U,17973,999,2134,.9389E-4,.133E-5,0
SL-14 R/B,1987-055B,2026-07-13T11:44:27.152160,14.85726392,.0019522,82.4973,230.4337,321.0439,38.9370,0,U,18153,999,8861,.20346E-4,.201E-5,0
COSMOS 1867,1987-060A,2026-07-13T11:17:54.730176,14.31518366,.0017114,65.0119,314.4492,282.0079,77.9087,0,U,18187,999,3794,.1355E-4,-.64E-6,0
SL-14 R/B,1988-001B,2026-07-13T06:59:05.402400,14.85626071,.001802,82.5122,77.2146,178.0088,182.1203,0,U,18749,999,6067,.22428E-4,.219E-5,0
COSMOS 1933,1988-020A,2026-07-13T07:48:03.575232,15.18882205,.0005784,82.5141,126.5501,112.1224,248.0624,0,U,18958,999,6929,.81997E-4,.1742E-4,0
SL-3 R/B,1988-032B,2026-07-13T11:51:04.713984,15.21023878,.0026348,97.5268,177.5131,151.4392,208.8293,0,U,19046,999,7122,.10528E-3,.2285E-4,0
SL-16 R/B,1988-039B,2026-07-13T07:59:09.777120,14.19631390,.0020733,71.0123,162.8729,152.3374,207.8859,0,U,19120,999,97621,-.10938E-4,-.71E-6,0
COSMOS 1953,1988-050A,2026-07-13T12:05:19.635936,15.30323655,.0011652,82.5060,31.4869,45.4060,314.8129,0,U,19210,999,5701,.16173E-3,.4785E-4,0
SL-8 R/B,1988-053B,2026-07-13T12:02:52.310976,14.38977722,.0019649,74.0460,240.5503,26.6543,78.4735,0,U,19257,999,99469,.49609E-4,.127E-5,0
COSMOS 1975,1988-093A,2026-07-13T10:54:26.460288,15.29649009,.0012553,82.5193,351.2709,87.7925,272.4753,0,U,19573,999,3862,.13677E-3,.3971E-4,0
SL-14 R/B,1988-093B,2026-07-13T08:05:25.840032,14.85759423,.0020171,82.5317,284.0962,346.6395,79.0021,0,U,19574,999,1967,.21618E-4,.213E-5,0
SL-16 R/B,1988-102B,2026-07-13T11:50:04.323840,14.16166996,.0014412,70.9980,246.7888,188.2611,171.8277,0,U,19650,999,94470,-.67981E-4,-.183E-5,0
INTERCOSMOS 24,1989-080A,2026-07-13T11:06:31.086720,12.59691504,.1187299,82.6048,22.5424,0.9667,359.3347,0,U,20261,999,68263,.54318E-4,.199E-5,0
SL-14 R/B,1989-080C,2026-07-13T03:53:53.221056,12.50578237,.12286316,82.5936,92.6184,257.9435,88.1663,0,U,20262,999,67583,.19254792E-4,.66E-6,0
DELTA 1 R/B,1989-089B,2026-07-13T11:56:48.016608,14.50747218,.0070645,97.0634,21.8455,85.2297,275.6963,0,U,20323,999,91397,.44253E-4,.145E-5,0
ARIANE 40 R/B,1990-005H,2026-07-13T04:07:57.788832,14.39940196,.00101378,98.2946,250.9785,179.9827,180.1364,0,U,20443,999,91086,.48495437E-4,.11E-5,0
DELTA 2 R/B(1),1990-008B,2026-07-12T22:15:41.067360,15.73246033,.00600556,35.6002,62.9055,354.6112,5.3978,0,U,20453,999,94575,.57423144E-3,.92909E-3,0
COSMOS 2058,1990-010A,2026-07-13T08:10:57.196128,15.12150732,.0007885,82.4672,283.5614,257.6747,102.3601,0,U,20465,999,96122,.89226E-4,.1568E-4,0
SL-14 R/B,1990-010B,2026-07-13T08:03:19.166400,14.83662445,.0018314,82.5034,149.3886,243.8747,116.0584,0,U,20466,999,94711,.20719E-4,.195E-5,0
